[{"OBJECT_NAME":"STARLINK-1667","OBJECT_ID":"2020-057AQ","EPOCH":"2026-03-10T00:00:02.999808","MEAN_MOTION":15.64679254,"ECCENTRICITY":0.00044965,"INCLINATION":53.0228,"RA_OF_ASC_NODE":223.2644,"ARG_OF_PERICENTER":176.4377,"MEAN_ANOMALY":150.6875,"EPHEMERIS_TYPE":0,"CLASSIFICATION_TYPE":"U","NORAD_CAT_ID":46155,"ELEMENT_SET_NO":999,"REV_AT_EPOCH":578,"BSTAR":0.00015658707,"MEAN_MOTION_DOT":0.00014951,"MEAN_MOTION_DDOT":0},{"OBJECT_NAME":"ARCTICSAT 1 (RS74S)","OBJECT_ID":"2024-199AD","EPOCH":"2026-03-09T22:49:47.491968","MEAN_MOTION":15.65786404,"ECCENTRICITY":0.00034861,"INCLINATION":97.3086,"RA_OF_ASC_NODE":307.2864,"ARG_OF_PERICENTER":247.2949,"MEAN_ANOMALY":112.7943,"EPHEMERIS_TYPE":0,"CLASSIFICATION_TYPE":"U","NORAD_CAT_ID":61762,"ELEMENT_SET_NO":999,"REV_AT_EPOCH":12243,"BSTAR":0.0011044428,"MEAN_MOTION_DOT":0.00112957,"MEAN_MOTION_DDOT":0}]
